NORAD_CAT_ID,OBJECT_NAME,OBJECT_TYPE,EPOCH,MEAN_MOTION,ECCENTRICITY,INCLINATION,RA_OF_ASC_NODE,ARG_OF_PERICENTER,MEAN_ANOMALY,BSTAR,MEAN_MOTION_DOT,MEAN_MOTION_DDOT,TLE_LINE0,TLE_LINE1,TLE_LINE2,SEMIMAJOR_AXIS,PERIOD,APOGEE,PERIGEE,DECAYED
50163.0,STARLINK-3306,PAYLOAD,2022-01-02 16:00:00,15.81269155,9.84e-05,53.218,290.7212,77.7325,179.3834,-0.0043684,-0.00801642,0.0,0 STARLINK-3306,1 50163U 21125H   22002.66667824 -.00801642  00000-0 -43684-2 0  9997,2 50163  53.2180 290.7212 0000984  77.7325 179.3834 15.81269155  2887,6704.988,91.066,327.512,326.193,0.0
50163.0,STARLINK-3306,PAYLOAD,2022-01-04 01:49:55,15.79249179,0.0001067,53.2201,283.6816,105.0229,255.0912,-0.0024682,-0.00430962,0.0,0 STARLINK-3306,1 50163U 21125H   22004.07633899 -.00430962  00000-0 -24682-2 0  9999,2 50163  53.2201 283.6816 0001067 105.0229 255.0912 15.79249179  5910,6710.704000000002,91.183,333.285,331.853,0.0
50163.0,STARLINK-3306,PAYLOAD,2022-01-06 00:58:50,15.75986916,0.0001575,53.2193,273.9047,99.3254,260.7946,-0.0027285,-0.00412497,0.0,0 STARLINK-3306,1 50163U 21125H   22006.04086796 -.00412497  00000-0 -27285-2 0  9991,2 50163  53.2193 273.9047 0001575  99.3254 260.7946 15.75986916  5749,6719.9609999999975,91.371,342.885,340.76800000000014,0.0
50163.0,STARLINK-3306,PAYLOAD,2022-01-06 08:35:42,15.7544851,0.0001456,53.219,272.3303,84.8594,275.2593,-0.002752,-0.00406576,0.0,0 STARLINK-3306,1 50163U 21125H   22006.35812640 -.00406576  00000-0 -27520-2 0  9993,2 50163  53.2190 272.3303 0001456  84.8594 275.2593 15.75448510  5795,6721.4919999999975,91.403,344.336,342.379,0.0
50163.0,STARLINK-3306,PAYLOAD,2022-01-06 14:41:12,15.75227956,0.0001547,53.2192,271.0706,82.2454,277.8743,-0.0021752,-0.00321572,0.0,0 STARLINK-3306,1 50163U 21125H   22006.61195305 -.00321572  00000-0 -21752-2 0  9997,2 50163  53.2192 271.0706 0001547  82.2454 277.8743 15.75227956  5837,6722.12,91.415,345.024,342.945,0.0
50163.0,STARLINK-3306,PAYLOAD,2022-01-06 22:17:20,15.77043618,0.0011482,53.2188,269.4934,245.6923,114.29,0.0041636,0.00756592,0.0,0 STARLINK-3306,1 50163U 21125H   22006.92870683  .00756592  00000-0  41636-2 0  9995,2 50163  53.2188 269.4934 0011482 245.6923 114.2900 15.77043618  6362,6716.959,91.31,346.537,331.112,0.0
50163.0,STARLINK-3306,PAYLOAD,2022-01-07 01:21:19,15.74378379,0.0001681,53.2192,268.8696,103.8898,256.231,-0.0028999,-0.0040875999999999,0.0,0 STARLINK-3306,1 50163U 21125H   22007.05647799 -.00408760  00000-0 -28999-2 0  9990,2 50163  53.2192 268.8696 0001681 103.8898 256.2310 15.74378379  5904,6724.538000000001,91.465,347.533,345.272,0.0
50163.0,STARLINK-3306,PAYLOAD,2022-01-07 01:21:25,15.7415536,9.92e-05,53.2214,268.8581,137.6792,222.4306,-0.0017245,-0.00245594,0.0,0 STARLINK-3306,1 50163U 21125H   22007.05654363 -.00245594  00000-0 -17245-2 0  9991,2 50163  53.2214 268.8581 0000992 137.6792 222.4306 15.74155360  5907,6725.1730000000025,91.478,347.705,346.371,0.0
50163.0,STARLINK-3306,PAYLOAD,2022-01-09 22:00:00,15.73286762,0.0001095,53.2177,254.7165,95.0059,273.5358,-0.00045942,-0.00064839,0.0,0 STARLINK-3306,1 50163U 21125H   22009.91667824 -.00064839  00000-0 -45942-3 0  9991,2 50163  53.2177 254.7165 0001095  95.0059 273.5358 15.73286762  6359,6727.648,91.528,350.25,348.776,0.0
50163.0,STARLINK-3306,PAYLOAD,2022-01-10 14:00:01,15.73146708,0.0001317,53.2175,251.4157,102.5077,83.9806,-0.00039317,-0.00055311,0.0,0 STARLINK-3306,1 50163U 21125H   22010.58334491 -.00055311  00000-0 -39317-3 0  9991,2 50163  53.2175 251.4157 0001317 102.5077  83.9806 15.73146708  6461,6728.047,91.536,350.798,349.026,0.0
50163.0,STARLINK-3306,PAYLOAD,2022-01-10 22:00:00,15.73087294,0.0001535,53.2178,249.7683,93.0506,182.2803,0.00011826,0.00015929,0.0,0 STARLINK-3306,1 50163U 21125H   22010.91667824  .00015929  00000-0  11826-3 0  9991,2 50163  53.2178 249.7683 0001535  93.0506 182.2803 15.73087294  3732,6728.217,91.54,351.11400000000015,349.0490000000001,0.0
50163.0,STARLINK-3306,PAYLOAD,2022-01-11 06:00:00,15.73119805,0.0001385999999999,53.2177,248.1191,91.2957,272.8292,0.00012545,0.00016962,0.0,0 STARLINK-3306,1 50163U 21125H   22011.25001157  .00016962  00000-0  12545-3 0  9997,2 50163  53.2177 248.1191 0001386  91.2957 272.8292 15.73119805  6568,6728.124,91.538,350.921,349.056,0.0
50163.0,STARLINK-3306,PAYLOAD,2022-01-11 14:00:01,15.73112898,0.0001323,53.2178,246.4682,102.6905,350.2756,0.001334,0.00190185,0.0,0 STARLINK-3306,1 50163U 21125H   22011.58334491  .00190185  00000-0  13340-2 0  9996,2 50163  53.2178 246.4682 0001323 102.6905 350.2756 15.73112898  6613,6728.144,91.538,350.899,349.11800000000005,0.0
50163.0,STARLINK-3306,PAYLOAD,2022-01-11 22:00:00,15.73248449,0.0001209,53.2175,244.8208,92.1867,89.684,6.4778e-05,8.499e-05,0.0,0 STARLINK-3306,1 50163U 21125H   22011.91667824  .00008499  00000-0  64778-4 0  9991,2 50163  53.2175 244.8208 0001209  92.1867  89.6840 15.73248449  6674,6727.757,91.53,350.435,348.809,0.0
50163.0,STARLINK-3306,PAYLOAD,2022-01-12 14:00:01,15.73232856,0.0001294,53.2174,241.5199,103.8054,256.0267,-0.00013092,-0.00018978,0.0,0 STARLINK-3306,1 50163U 21125H   22012.58334491 -.00018978  00000-0 -13092-3 0  9993,2 50163  53.2174 241.5199 0001294 103.8054 256.0267 15.73232856  3730,6727.802,91.531,350.537,348.796,0.0
50163.0,STARLINK-3306,PAYLOAD,2022-01-12 16:00:00,15.73248222,0.00013,53.2176,241.1079,103.6528,8.4145,-0.00039964,-0.00056447,0.0,0 STARLINK-3306,1 50163U 21125H   22012.66667824 -.00056447  00000-0 -39964-3 0  9990,2 50163  53.2176 241.1079 0001300 103.6528   8.4145 15.73248222  6783,6727.7580000000025,91.53,350.497,348.74800000000016,0.0
50163.0,STARLINK-3306,PAYLOAD,2022-01-12 22:00:00,15.7319,0.0001134,53.2175,239.8726,93.0006,355.7882,0.00018162,0.00024934,0.0,0 STARLINK-3306,1 50163U 21125H   22012.91667824  .00024934  00000-0  18162-3 0  9999,2 50163  53.2175 239.8726 0001134  93.0006 355.7882 15.73190000  6824,6727.924,91.534,350.552,349.026,0.0
50163.0,STARLINK-3306,PAYLOAD,2022-01-13 14:00:01,15.73254087,0.0001194,53.2174,236.5718,102.1225,164.5361,-0.00016418,-0.0002365,0.0,0 STARLINK-3306,1 50163U 21125H   22013.58334491 -.00023650  00000-0 -16418-3 0  9992,2 50163  53.2174 236.5718 0001194 102.1225 164.5361 15.73254087  3707,6727.741,91.53,350.409,348.80300000000005,0.0
50163.0,STARLINK-3306,PAYLOAD,2022-01-13 22:00:00,15.73198743,0.000133,53.217,234.9244,89.6101,266.0514,0.00016348,0.00022383,0.0,0 STARLINK-3306,1 50163U 21125H   22013.91667824  .00022383  00000-0  16348-3 0  9990,2 50163  53.2170 234.9244 0001330  89.6101 266.0514 15.73198743  3695,6727.899,91.533,350.659,348.869,0.0
50163.0,STARLINK-3306,PAYLOAD,2022-01-14 06:00:00,15.73437059,0.0001183,53.2167,233.2686,91.5152,353.0463,-0.0053375,-0.00697638,0.0,0 STARLINK-3306,1 50163U 21125H   22014.25001157 -.00697638  00000-0 -53375-2 0  9992,2 50163  53.2167 233.2686 0001183  91.5152 353.0463 15.73437059  7035,6727.219,91.519,349.88,348.289,0.0
50163.0,STARLINK-3306,PAYLOAD,2022-01-14 14:00:01,15.73222335,0.0001176,53.2166,231.6235,103.7929,69.7483,-0.00023884,-0.00034035,0.0,0 STARLINK-3306,1 50163U 21125H   22014.58334491 -.00034035  00000-0 -23884-3 0  9997,2 50163  53.2166 231.6235 0001176 103.7929  69.7483 15.73222335  3719,6727.831,91.532,350.48800000000006,348.905,0.0
50163.0,STARLINK-3306,PAYLOAD,2022-01-14 22:00:00,15.73168551,0.0001248,53.2167,229.9762,87.8315,174.6662,0.0002983,0.00041394,0.0,0 STARLINK-3306,1 50163U 21125H   22014.91667824  .00041394  00000-0  29830-3 0  9994,2 50163  53.2167 229.9762 0001248  87.8315 174.6662 15.73168551  3721,6727.985,91.535,350.689,349.01,0.0
50163.0,STARLINK-3306,PAYLOAD,2022-01-15 06:00:00,15.73253716,0.0001045,53.2165,228.3259,89.9886,261.4226,-0.00037898,-0.0005359,0.0,0 STARLINK-3306,1 50163U 21125H   22015.25001157 -.00053590  00000-0 -37898-3 0  9999,2 50163  53.2165 228.3259 0001045  89.9886 261.4226 15.73253716  7198,6727.7419999999975,91.53,350.31,348.904,0.0
50163.0,STARLINK-3306,PAYLOAD,2022-01-15 14:00:01,15.73347302,0.000131,53.2169,226.67,92.8453,347.5363,-0.0022888,-0.00312175,0.0,0 STARLINK-3306,1 50163U 21125H   22015.58335648 -.00312175  00000-0 -22888-2 0  9999,2 50163  53.2169 226.6700 0001310  92.8453 347.5363 15.73347302  3720,6727.475,91.525,350.222,348.459,0.0
50163.0,STARLINK-3306,PAYLOAD,2022-01-15 22:00:01,15.73213276,0.0001032,53.216,225.028,82.3274,87.035,-0.00019271,-0.00027591,0.0,0 STARLINK-3306,1 50163U 21125H   22015.91668981 -.00027591  00000-0 -19271-3 0  9993,2 50163  53.2160 225.0280 0001032  82.3274  87.0350 15.73213276  3716,6727.857,91.532,350.417,349.028,0.0
50163.0,STARLINK-3306,PAYLOAD,2022-01-16 06:00:00,15.73242322,9.27e-05,53.2155,223.3775,88.1974,170.0236,-0.00056292,-0.00079023,0.0,0 STARLINK-3306,1 50163U 21125H   22016.25001157 -.00079023  00000-0 -56292-3 0  9998,2 50163  53.2155 223.3775 0000927  88.1974 170.0236 15.73242322  7357,6727.775,91.531,350.26300000000015,349.016,0.0
50163.0,STARLINK-3306,PAYLOAD,2022-01-16 14:00:01,15.73213586,0.0001165,53.2157,221.727,95.9422,251.2267,-0.00014275,-0.00020616,0.0,0 STARLINK-3306,1 50163U 21125H   22016.58334491 -.00020616  00000-0 -14275-3 0  9993,2 50163  53.2157 221.7270 0001165  95.9422 251.2267 15.73213586  7402,6727.856,91.532,350.505,348.93800000000016,0.0
50163.0,STARLINK-3306,PAYLOAD,2022-01-16 22:00:00,15.73147082,0.0001328,53.2158,220.0798,82.4601,353.6259,0.00057193,0.00080234,0.0,0 STARLINK-3306,1 50163U 21125H   22016.91667824  .00080234  00000-0  57193-3 0  9995,2 50163  53.2158 220.0798 0001328  82.4601 353.6259 15.73147082  3716,6728.045999999999,91.536,350.805,349.01800000000014,0.0
50163.0,STARLINK-3306,PAYLOAD,2022-01-17 00:00:00,15.7315364,0.0001302,53.2158,219.6676,80.2347,108.0734,0.00062388,0.00087681,0.0,0 STARLINK-3306,1 50163U 21125H   22017.00001157  .00087681  00000-0  62388-3 0  9992,2 50163  53.2158 219.6676 0001302  80.2347 108.0734 15.73153640  7474,6728.026999999999,91.536,350.76800000000014,349.016,0.0
